IRIDIUM 171             
1 43929U 19002H   25221.78443150  .00000097  00000+0  27695-4 0  9991
2 43929  86.3996 124.0510 0002283  91.5823 268.5635 14.34217104344324
IRIDIUM 170             
1 43930U 19002J   25222.48477728  .00000917  00000+0  14160-3 0  9992
2 43930  86.6110 123.5018 0002344  88.2745 271.8741 14.72248737353545
IRIDIUM 167             
1 43931U 19002K   25221.84785739  .00000200  00000+0  64281-4 0  9991
2 43931  86.3987 123.7725 0002098  96.9481 263.1954 14.34218064344336
IRIDIUM 181             
1 56726U 23068S   25222.16414215  .00000355  00000+0  99370-4 0  9996
2 56726  86.4552 186.7031 0002859  93.0104 267.1424 14.43309375117571
IRIDIUM 177             
1 56727U 23068T   25222.15238489  .00000933  00000+0  11930-3 0  9990
2 56727  86.1974 116.5231 0002292  93.2393 266.9090 14.80230085120351
IRIDIUM 174             
1 56728U 23068U   25222.47241923  .00000957  00000+0  14791-3 0  9997
2 56728  86.6119 123.6228 0002117  74.6188 285.5263 14.72251754120305
IRIDIUM 178             
1 56729U 23068V   25222.07389085  .00001335  00000+0  17228-3 0  9995
2 56729  86.6607 155.3583 0002412  82.5053 277.6442 14.80233587120349
IRIDIUM 179             
1 56730U 23068W   25222.54171564  .00001267  00000+0  16329-3 0  9995
2 56730  86.6846 163.1957 0002396  91.4789 268.6707 14.80239041120417
